IRIDIUM 155             
1 43573U 18061E   25080.87155629  .00000839  00000+0  29242-3 0  9997
2 43573  86.3930 245.6428 0001956  82.9419 277.2000 14.34215292348521
IRIDIUM 154             
1 43574U 18061F   25080.85252784  .00000811  00000+0  28263-3 0  9998
2 43574  86.3923 245.7602 0002001  84.4332 275.7092 14.34216680348573
IRIDIUM 163             
1 43575U 18061G   25080.83349914  .00001099  00000+0  38542-3 0  9999
2 43575  86.3933 245.6997 0002177  91.1732 268.9713 14.34215520348547
IRIDIUM 156             
1 43576U 18061H   25080.87789807  .00000728  00000+0  25292-3 0  9999
2 43576  86.3934 245.6876 0001791  77.9116 282.2281 14.34217441348547
IRIDIUM 164             
1 43577U 18061J   25080.85887000 -.00000024  00000+0 -15499-4 0  9992
2 43577  86.3938 245.7296 0001887  99.6897 260.4512 14.34217226348582
IRIDIUM 159             
1 43578U 18061K   25080.89692550  .00000053  00000+0  11844-4 0  9991
2 43578  86.3934 245.6594 0002214  97.2331 262.9116 14.34217870348550
IRIDIUM 180             
1 43922U 19002A   25080.82665287  .00000819  00000+0  28532-3 0  9991
2 43922  86.4048 182.6429 0002169  92.4041 267.7403 14.34213994324156
IRIDIUM 176             
1 43923U 19002B   25080.69796331  .00000123  00000+0  15606-4 0  9999
2 43923  86.6171 182.6965 0002851  92.2023 267.9520 14.72221845332671
IRIDIUM 168             
1 43924U 19002C   25080.82030800  .00000871  00000+0  30402-3 0  9997
2 43924  86.4053 182.7099 0002169  97.9133 262.2309 14.34213124324138
IRIDIUM 173             
1 43925U 19002D   25080.80762236  .00000412  00000+0  14016-3 0  9995
2 43925  86.4057 182.6217 0002631  98.6342 261.5152 14.34208696324112
IRIDIUM 169             
1 43926U 19002E   25080.86167490  .00001257  00000+0  40405-3 0  9992
2 43926  86.4264 214.1680 0002893  61.6116 298.5374 14.38637959325194
IRIDIUM 172             
1 43927U 19002F   25080.66176702  .00000155  00000+0  48254-4 0  9994
2 43927  86.4051 182.6898 0002379  99.5364 260.6101 14.34203312324109
IRIDIUM 175             
1 43928U 19002G   25080.69277071  .00002449  00000+0  38448-3 0  9990
2 43928  86.1517 140.2243 0001608  74.5990 285.5404 14.72243638332669
IRIDIUM 171             
1 43929U 19002H   25080.78225096  .00000309  00000+0  10345-3 0  9990
2 43929  86.4060 182.8957 0001801 104.8814 255.2581 14.34217200324112
IRIDIUM 170             
1 43930U 19002J   25080.70415216  .00000241  00000+0  34258-4 0  9994
2 43930  86.6170 182.6990 0001811  92.9262 267.2162 14.72224808332681
IRIDIUM 167             
1 43931U 19002K   25080.70613907  .00000893  00000+0  31173-3 0  9997
2 43931  86.4047 182.6900 0001760  89.5209 270.6188 14.34222440324102
IRIDIUM 181             
1 56726U 23068S   25080.87079687  .00000480  00000+0  13671-3 0  9994
2 56726  86.4473 245.6908 0001592  94.6404 265.4979 14.43320603 97192
IRIDIUM 177             
1 56727U 23068T   25080.79737450  .00000796  00000+0  10137-3 0  9999
2 56727  86.2042 183.5753 0001636 102.2039 257.9365 14.80170127 99440
IRIDIUM 174             
1 56728U 23068U   25080.79197103  .00001823  00000+0  23661-3 0  9993
2 56728  86.2050 183.7038 0002668 112.6378 247.5125 14.80198177 99449
IRIDIUM 178             
1 56729U 23068V   25080.85406063  .00006351  00000+0  83078-3 0  9998
2 56729  86.6572 214.2489 0001976 118.8274 241.3146 14.80294438 99450
IRIDIUM 179             
1 56730U 23068W   25080.84873633  .00004634  00000+0  60619-3 0  9998
2 56730  86.6805 221.8647 0002105  89.7719 270.3744 14.80237455 99458
